IRIDIUM 150             
1 43257U 18030J   25078.60624073  .00000564  00000+0  19417-3 0  9992
2 43257  86.3943 120.5345 0001999  91.0400 269.1025 14.34218195365005
IRIDIUM 143             
1 43258U 18030K   25078.72675078  .00000665  00000+0  23032-3 0  9997
2 43258  86.3948 120.5589 0001841  89.6513 270.4894 14.34219757364952
IRIDIUM 161             
1 43478U 18047C   25078.91333645  .00000370  00000+0  10387-3 0  9993
2 43478  86.4429 278.2811 0002108  90.3450 269.7992 14.43283340359612
IRIDIUM 152             
1 43479U 18047D   25078.90877520  .00000024  00000+0  14394-5 0  9998
2 43479  86.3903 278.1427 0002073  88.6828 271.4605 14.34217738357371
IRIDIUM 147             
1 43480U 18047E   25078.91511790 -.00000007  00000+0 -94173-5 0  9991
2 43480  86.3907 278.1372 0002095  94.8750 265.2685 14.34217589357376
IRIDIUM 110             
1 43481U 18047F   25078.57261868  .00000010  00000+0 -34758-5 0  9998
2 43481  86.3910 278.3609 0002437  91.4736 268.6739 14.34217685357311
IRIDIUM 162             
1 43482U 18047G   25078.90703494  .00000373  00000+0  10488-3 0  9995
2 43482  86.4429 278.1801 0002356  82.7004 277.4464 14.43277826359601
IRIDIUM 160             
1 43569U 18061A   25078.86729543  .00000345  00000+0  11615-3 0  9997
2 43569  86.3930 246.5857 0002271  95.1485 264.9970 14.34218840348253
